OBJECT_NAME,OBJECT_ID,EPOCH,MEAN_MOTION,ECCENTRICITY,INCLINATION,RA_OF_ASC_NODE,ARG_OF_PERICENTER,MEAN_ANOMALY,EPHEMERIS_TYPE,CLASSIFICATION_TYPE,NORAD_CAT_ID,ELEMENT_SET_NO,REV_AT_EPOCH,BSTAR,MEAN_MOTION_DOT,MEAN_MOTION_DDOT
STARLINK-37057,2026-049V,2026-06-04T23:49:24.159072,15.33466371,.0000873,97.2826,177.4502,77.0841,283.0499,0,U,68161,999,1302,.10657E-2,.34511E-3,0
STARLINK-37013,2026-049W,2026-06-05T01:07:42.610944,15.33445890,.0000781,97.2825,177.5278,91.7251,268.4081,0,U,68162,999,1303,.83747E-3,.27059E-3,0
STARLINK-36958,2026-049X,2026-06-05T00:12:54.849024,15.33450693,.0001113,97.2831,177.4295,23.8527,336.2767,0,U,68163,999,1302,.13473E-2,.4368E-3,0
STARLINK-37002,2026-049Y,2026-06-05T01:19:27.312672,15.33461991,.0000829,97.2819,177.5180,28.8236,331.3052,0,U,68164,999,1303,.84301E-3,.27253E-3,0
STARLINK-36971,2026-049Z,2026-06-05T00:28:33.604896,15.33473885,.0001083,97.2841,177.5683,66.9563,293.1794,0,U,68165,999,1303,.14312E-2,.46458E-3,0
STARLINK-36273,2026-049AA,2026-06-05T01:45:04.563072,15.33462792,.0001105,97.2824,178.4118,40.9729,319.1597,0,U,68166,999,1309,.74202E-3,.23969E-3,0
STARLINK-36969,2026-050A,2026-06-03T12:31:28.744608,15.38826114,.0001134,53.1568,227.4215,90.1577,269.9557,0,U,68167,999,1383,.53440818E-3,.20486E-3,0
STARLINK-36984,2026-050B,2026-06-03T14:44:53.880864,15.34374881,.00017812,53.1565,226.5909,37.9962,322.1166,0,U,68168,999,1385,.80569161E-3,.26922E-3,0
STARLINK-37077,2026-050C,2026-06-05T04:00:03.000096,15.34378760,.0001456,53.1582,219.7352,90.8879,358.6901,0,U,68169,999,588,.19165E-2,.64894E-3,0
STARLINK-37003,2026-050D,2026-06-03T19:58:38.733600,15.38831801,.00011005,53.1557,225.8027,99.1969,260.9160,0,U,68170,999,1388,.87304551E-3,.33785E-3,0
STARLINK-37034,2026-050E,2026-06-03T12:04:34.466016,15.34420990,.0001216,53.1581,227.3022,139.2678,220.8416,0,U,68171,999,1383,.5337467E-3,.17712E-3,0
STARLINK-37031,2026-050F,2026-06-03T20:17:46.840128,15.34347164,.00014762,53.1589,225.8862,64.8383,295.2772,0,U,68172,999,1388,.12569406E-2,.4226E-3,0
STARLINK-37076,2026-050G,2026-06-03T12:37:53.166720,15.34421875,.00029141,53.1592,227.4429,150.3748,209.7420,0,U,68173,999,1383,.68694235E-3,.22921E-3,0
STARLINK-37078,2026-050H,2026-06-03T20:14:46.328928,15.34428362,.00023853,53.1558,225.8703,46.0228,314.0971,0,U,68174,999,1388,.15081203E-3,.4726E-4,0
STARLINK-36886,2026-050J,2026-06-04T17:16:23.761344,15.34409000,.0001348,53.1577,221.3794,72.7621,287.3529,0,U,68175,999,1402,.81571195E-3,.27292E-3,0
STARLINK-36905,2026-050K,2026-06-03T12:22:45.390432,15.34400895,.00010483,53.1581,227.3735,83.8266,276.2856,0,U,68176,999,1383,.76296668E-3,.2549E-3,0
STARLINK-36668,2026-050L,2026-06-03T11:43:21.889056,15.34400959,.0001315,53.1583,227.2246,123.5459,236.5669,0,U,68177,999,1383,.36332E-3,.11919E-3,0
STARLINK-36677,2026-050M,2026-06-04T17:40:38.183520,15.34418706,.00031981,53.1563,221.4790,20.7903,339.3230,0,U,68178,999,1402,.69880048E-3,.23323E-3,0
STARLINK-37052,2026-050N,2026-06-04T13:18:53.871552,15.38850324,.0002113,53.1560,222.4987,33.5961,326.5177,0,U,68179,999,1399,.69431677E-3,.26779E-3,0
STARLINK-37035,2026-050P,2026-06-03T20:06:09.876384,15.38825975,.00012486,53.1567,225.8350,82.6094,277.5052,0,U,68180,999,1388,-.28052938E-3,-.11312E-3,0
STARLINK-37032,2026-050Q,2026-06-05T04:00:03.000096,15.34377040,.0001309,53.1582,219.6167,77.9777,69.7389,0,U,68181,999,580,.19142E-2,.6481E-3,0
STARLINK-37082,2026-050R,2026-06-03T12:19:43.584096,15.34392556,.00010506,53.1598,227.3708,130.1119,229.9976,0,U,68182,999,1383,.59253695E-3,.19691E-3,0
STARLINK-37102,2026-050S,2026-06-03T13:54:49.505760,15.38853459,.0001123,53.1570,227.0704,112.9757,247.1366,0,U,68183,999,1384,.75159E-3,.29032E-3,0
STARLINK-36964,2026-050T,2026-06-05T04:00:03.000096,15.34373189,.0001132,53.1576,219.5687,89.4567,81.5371,0,U,68184,999,583,.19894E-2,.67387E-3,0
STARLINK-37061,2026-050U,2026-06-04T18:31:59.636064,15.34429782,.0001004,53.1587,220.9976,146.1264,213.9803,0,U,68185,999,1403,.60327E-3,.2008E-3,0
STARLINK-37079,2026-050V,2026-06-04T15:41:34.464768,15.35436416,.0001663,53.1570,221.7004,174.4514,185.6507,0,U,68186,999,1401,.14220133E-2,.49607E-3,0
STARLINK-37006,2026-050W,2026-06-03T12:34:53.080608,15.34375924,.00009198,53.1584,227.4311,125.2987,234.8102,0,U,68187,999,1383,.43033758E-3,.1418E-3,0
STARLINK-36305,2026-050Y,2026-06-03T17:25:21.062208,15.34421717,.00023745,53.1597,226.5542,33.5972,326.5181,0,U,68189,999,1376,.73409253E-3,.24525E-3,0
STARLINK-37071,2026-050Z,2026-06-03T11:07:08.965344,15.34407159,.00038939,53.1576,227.7547,14.0851,346.0259,0,U,68190,999,1382,.91952045E-3,.30831E-3,0
STARLINK-37091,2026-050AA,2026-06-04T19:23:31.461792,15.34414348,.000187,53.1564,221.2143,51.8597,308.2574,0,U,68191,999,1403,.622E-3,.20707E-3,0
