[ {"name": "STARLINK-37057", "line1": "1 68161U 26049V   26155.99264073  .00034511  00000+0  10657-2 0  9996", "line2": "2 68161  97.2826 177.4502 0000873  77.0841 283.0499 15.33466371 13029"}, {"name": "STARLINK-37013", "line1": "1 68162U 26049W   26156.04702096  .00027059  00000+0  83747-3 0  9996", "line2": "2 68162  97.2825 177.5278 0000781  91.7251 268.4081 15.33445890 13034"}, {"name": "STARLINK-36958", "line1": "1 68163U 26049X   26156.00896816  .00043680  00000+0  13473-2 0  9993", "line2": "2 68163  97.2831 177.4295 0001113  23.8527 336.2767 15.33450693 13023"}, {"name": "STARLINK-37002", "line1": "1 68164U 26049Y   26156.05517723  .00027253  00000+0  84301-3 0  9993", "line2": "2 68164  97.2819 177.5180 0000829  28.8236 331.3052 15.33461991 13036"}, {"name": "STARLINK-36971", "line1": "1 68165U 26049Z   26156.01983339  .00046458  00000+0  14312-2 0  9992", "line2": "2 68165  97.2841 177.5683 0001083  66.9563 293.1794 15.33473885 13032"}, {"name": "STARLINK-36273", "line1": "1 68166U 26049AA  26156.07296948  .00023969  00000+0  74202-3 0  9999", "line2": "2 68166  97.2824 178.4118 0001105  40.9729 319.1597 15.33462792 13099"}, {"name": "STARLINK-36969", "line1": "1 68167U 26050A   26154.52186047  .00020486  00000+0  53441-3 0  9991", "line2": "2 68167  53.1568 227.4215 0001134  90.1577 269.9557 15.38826114 13836"}, {"name": "STARLINK-36984", "line1": "1 68168U 26050B   26154.61451251  .00026922  00000+0  80569-3 0  9996", "line2": "2 68168  53.1565 226.5909 0001781  37.9962 322.1166 15.34374881 13854"}, {"name": "STARLINK-37077", "line1": "1 68169U 26050C   26156.16670139  .00064894  00000+0  19165-2 0  9990", "line2": "2 68169  53.1582 219.7352 0001456  90.8879 358.6901 15.34378760  5889"}, {"name": "STARLINK-37003", "line1": "1 68170U 26050D   26154.83239275  .00033785  00000+0  87305-3 0  9993", "line2": "2 68170  53.1557 225.8027 0001100  99.1969 260.9160 15.38831801 13883"}, {"name": "STARLINK-37034", "line1": "1 68171U 26050E   26154.50317669  .00017712  00000+0  53375-3 0  9994", "line2": "2 68171  53.1581 227.3022 0001216 139.2678 220.8416 15.34420990 13837"}, {"name": "STARLINK-37031", "line1": "1 68172U 26050F   26154.84568102  .00042260  00000+0  12569-2 0  9997", "line2": "2 68172  53.1589 225.8862 0001476  64.8383 295.2772 15.34347164 13882"}, {"name": "STARLINK-37076", "line1": "1 68173U 26050G   26154.52630980  .00022921  00000+0  68694-3 0  9990", "line2": "2 68173  53.1592 227.4429 0002914 150.3748 209.7420 15.34421875 13835"}, {"name": "STARLINK-37078", "line1": "1 68174U 26050H   26154.84359177  .00004726  00000+0  15081-3 0  9997", "line2": "2 68174  53.1558 225.8703 0002385  46.0228 314.0971 15.34428362 13885"}, {"name": "STARLINK-36886", "line1": "1 68175U 26050J   26155.71971946  .00027292  00000+0  81571-3 0  9999", "line2": "2 68175  53.1577 221.3794 0001348  72.7621 287.3529 15.34409000 14025"}, {"name": "STARLINK-36905", "line1": "1 68176U 26050K   26154.51580313  .00025490  00000+0  76297-3 0  9998", "line2": "2 68176  53.1581 227.3735 0001048  83.8266 276.2856 15.34400895 13838"}, {"name": "STARLINK-36668", "line1": "1 68177U 26050L   26154.48844779  .00011919  00000+0  36332-3 0  9991", "line2": "2 68177  53.1583 227.2246 0001315 123.5459 236.5669 15.34400959 13832"}, {"name": "STARLINK-36677", "line1": "1 68178U 26050M   26155.73655305  .00023323  00000+0  69880-3 0  9992", "line2": "2 68178  53.1563 221.4790 0003198  20.7903 339.3230 15.34418706 14021"}, {"name": "STARLINK-37052", "line1": "1 68179U 26050N   26155.55479018  .00026779  00000+0  69432-3 0  9999", "line2": "2 68179  53.1560 222.4987 0002113  33.5961 326.5177 15.38850324 13993"}, {"name": "STARLINK-37035", "line1": "1 68180U 26050P   26154.83761431 -.00011312  00000+0 -28053-3 0  9997", "line2": "2 68180  53.1567 225.8350 0001248  82.6094 277.5052 15.38825975 13882"}, {"name": "STARLINK-37032", "line1": "1 68181U 26050Q   26156.16670139  .00064810  00000+0  19142-2 0  9997", "line2": "2 68181  53.1582 219.6167 0001309  77.9777  69.7389 15.34377040  5808"}, {"name": "STARLINK-37082", "line1": "1 68182U 26050R   26154.51369889  .00019691  00000+0  59254-3 0  9998", "line2": "2 68182  53.1598 227.3708 0001050 130.1119 229.9976 15.34392556 13831"}, {"name": "STARLINK-37102", "line1": "1 68183U 26050S   26154.57973965  .00029032  00000+0  75159-3 0  9993", "line2": "2 68183  53.1570 227.0704 0001123 112.9757 247.1366 15.38853459 13846"}, {"name": "STARLINK-36964", "line1": "1 68184U 26050T   26156.16670139  .00067387  00000+0  19894-2 0  9996", "line2": "2 68184  53.1576 219.5687 0001132  89.4567  81.5371 15.34373189  5835"}, {"name": "STARLINK-37061", "line1": "1 68185U 26050U   26155.77221801  .00020080  00000+0  60327-3 0  9998", "line2": "2 68185  53.1587 220.9976 0001004 146.1264 213.9803 15.34429782 14032"}, {"name": "STARLINK-37079", "line1": "1 68186U 26050V   26155.65387112  .00049607  00000+0  14220-2 0  9990", "line2": "2 68186  53.1570 221.7004 0001663 174.4514 185.6507 15.35436416 14016"}, {"name": "STARLINK-37006", "line1": "1 68187U 26050W   26154.52422547  .00014180  00000+0  43034-3 0  9992", "line2": "2 68187  53.1584 227.4311 0000919 125.2987 234.8102 15.34375924 13839"}, {"name": "STARLINK-36305", "line1": "1 68189U 26050Y   26154.72593822  .00024525  00000+0  73409-3 0  9994", "line2": "2 68189  53.1597 226.5542 0002374  33.5972 326.5181 15.34421717 13763"}, {"name": "STARLINK-37071", "line1": "1 68190U 26050Z   26154.46329821  .00030831  00000+0  91952-3 0  9993", "line2": "2 68190  53.1576 227.7547 0003893  14.0851 346.0259 15.34407159 13821"}, {"name": "STARLINK-37091", "line1": "1 68191U 26050AA  26155.80800303  .00020707  00000+0  62200-3 0  9997", "line2": "2 68191  53.1564 221.2143 0001870  51.8597 308.2574 15.34414348 14031"}]